COSMOS 1933             
1 18958U 88020A   26062.98913781  .00005653  00000+0  27725-3 0  9995
2 18958  82.5095 256.5539 0003375 204.5641 155.5433 15.17923014 49368
SL-3 R/B                
1 19046U 88032B   26063.46559470  .00008151  00000+0  38050-3 0  9991
2 19046  97.5183  46.7351 0024129 251.0027 108.8593 15.19836340 51310
SL-16 R/B               
1 19120U 88039B   26063.48421867  .00000001  00000+0  23281-4 0  9998
2 19120  71.0130  79.5557 0022482 342.0203  18.0125 14.19615702957641
COSMOS 1953             
1 19210U 88050A   26063.32279921  .00013390  00000+0  48175-3 0  9999
2 19210  82.5119 163.6431 0012208 139.8688 220.3455 15.28411280 36968
SL-8 R/B                
1 19257U 88053B   26063.51956536  .00000374  00000+0  12970-3 0  9990
2 19257  74.0468 121.9967 0021320 302.0399 160.0341 14.38912365975855
COSMOS 1975             
1 19573U 88093A   26063.22397468  .00011540  00000+0  42076-3 0  9993
2 19573  82.5197 123.1719 0011696 182.1757 177.9433 15.27974687 18578
SL-14 R/B               
1 19574U 88093B   26063.48771284  .00000854  00000+0  95423-4 0  9995
2 19574  82.5295  46.9274 0022067  57.7631  65.2466 14.85649461   240
SL-16 R/B               
1 19650U 88102B   26063.46603380  .00000046  00000+0  47301-4 0  9995
2 19650  71.0000 162.4875 0013620   9.5875 350.5505 14.16149548926159
INTERCOSMOS 24          
1 20261U 89080A   26063.16309438  .00000905  00000+0  26921-3 0  9993
2 20261  82.6032 108.0033 1186814 305.6605  43.9526 12.59548100666106
SL-14 R/B               
1 20262U 89080C   26063.35452787  .00000876  00000+0  26100-3 0  9997
2 20262  82.5971 176.6101 1230366 196.9414 158.6880 12.50486052659484
DELTA 1 R/B             
1 20323U 89089B   26063.44761883  .00000529  00000+0  13918-3 0  9992
2 20323  97.0709 271.7200 0070144 138.3013 222.3562 14.50658497894976
ARIANE 40 R/B           
1 20443U 90005H   26063.18474324  .00000401  00000+0  14118-3 0  9999
2 20443  98.3095 124.0100 0009519 215.6942 144.3611 14.39866455892011
